OBJECT_NAME,OBJECT_ID,EPOCH,MEAN_MOTION,ECCENTRICITY,INCLINATION,RA_OF_ASC_NODE,ARG_OF_PERICENTER,MEAN_ANOMALY,EPHEMERIS_TYPE,CLASSIFICATION_TYPE,NORAD_CAT_ID,ELEMENT_SET_NO,REV_AT_EPOCH,BSTAR,MEAN_MOTION_DOT,MEAN_MOTION_DDOT
STARLINK-38003,2026-147S,2026-07-04T22:00:03.000096,15.88662867,.00012807,97.2838,221.7254,75.1142,340.5952,0,U,69720,999,218,-.78210691E-2,-.1867939E-1,0
STARLINK-38014,2026-147T,2026-07-04T22:00:03.000096,15.88886538,.00012914,97.2840,221.7266,73.4311,344.7539,0,U,69721,999,218,-.7650821E-2,-.1850981E-1,0
STARLINK-37915,2026-147U,2026-07-04T22:00:03.000096,15.89091890,.00012619,97.2841,221.7277,71.7465,349.2005,0,U,69722,999,218,-.75655248E-2,-.184964E-1,0
STARLINK-38007,2026-147V,2026-07-04T22:00:03.000096,15.87869417,.00013207,97.2840,221.7270,64.0264,355.5501,0,U,69723,999,218,-.99810929E-2,-.2276156E-1,0
STARLINK-38008,2026-147W,2026-07-04T22:00:03.000096,15.89513908,.00013643,97.2842,221.7300,67.9413,357.8565,0,U,69724,999,218,-.72529851E-2,-.2083907E-1,.11484645E-2
STARLINK-38021,2026-147X,2026-07-04T22:00:03.000096,15.89690914,.00013528,97.2840,221.7312,66.9086,1.7442,0,U,69725,999,218,-.71796834E-2,-.2081198E-1,.11476942E-2
STARLINK-38015,2026-147Y,2026-07-04T22:00:03.000096,15.89889113,.00013119,97.2842,221.7321,62.2794,8.8419,0,U,69726,999,218,-.70568306E-2,-.206615E-1,.11343706E-2
STARLINK-38010,2026-147Z,2026-07-04T22:00:03.000096,15.90085391,.00012601,97.2842,221.7331,64.8400,8.7397,0,U,69727,999,218,-.69472871E-2,-.2054333E-1,.1124405E-2
SXM-11,2026-148A,2026-07-02T18:38:30.146784,2.87966624,.6817708,26.8166,144.0522,178.2879,186.7543,0,U,69728,999,14,0,-.235E-5,0
HAIYANG-2E,2026-149A,2026-07-04T06:42:18.852768,13.80975314,.00075972,99.3513,192.3452,219.2566,140.8036,0,U,69737,999,32,-.6119502E+0,-.616275E-2,0
CZ-4B R/B,2026-149B,2026-07-04T23:26:25.121760,14.30063944,.01986787,99.3214,193.2655,359.5115,0.5841,0,U,69738,999,67,.1337012E-5,-.53E-6,0
2026-152A,2026-152A,2026-07-04T08:28:34.986144,15.63889822,.0023002,20.5982,50.6670,199.1853,160.7727,0,U,69792,999,15,.18353489E-3,.19217E-3,0
2026-152B,2026-152B,2026-07-04T08:28:32.574720,15.63830603,.0023016,20.5986,50.6800,201.8951,158.0512,0,U,69793,999,15,.18294195E-3,.19114E-3,0
