STARLINK-38003          
1 69720U 26147S   26185.91670139 -.01867939  00000+0 -78211-2 0  9997
2 69720  97.2838 221.7254 0001280  75.1142 340.5952 15.88662867  2183
STARLINK-38014          
1 69721U 26147T   26185.91670139 -.01850981  00000+0 -76508-2 0  9994
2 69721  97.2840 221.7266 0001291  73.4311 344.7539 15.88886538  2181
STARLINK-37915          
1 69722U 26147U   26185.91670139 -.01849640  00000+0 -75655-2 0  9997
2 69722  97.2841 221.7277 0001261  71.7465 349.2005 15.89091890  2181
STARLINK-38007          
1 69723U 26147V   26185.91670139 -.02276156  00000+0 -99811-2 0  9995
2 69723  97.2840 221.7270 0001320  64.0264 355.5501 15.87869417  2189
STARLINK-38008          
1 69724U 26147W   26185.91670139 -.02083907  11485-2 -72530-2 0  9997
2 69724  97.2842 221.7300 0001364  67.9413 357.8565 15.89513908  2180
STARLINK-38021          
1 69725U 26147X   26185.91670139 -.02081198  11477-2 -71797-2 0  9993
2 69725  97.2840 221.7312 0001352  66.9086   1.7442 15.89690914  2186
STARLINK-38015          
1 69726U 26147Y   26185.91670139 -.02066150  11344-2 -70568-2 0  9993
2 69726  97.2842 221.7321 0001311  62.2794   8.8419 15.89889113  2182
STARLINK-38010          
1 69727U 26147Z   26185.91670139 -.02054333  11244-2 -69473-2 0  9996
2 69727  97.2842 221.7331 0001260  64.8400   8.7397 15.90085391  2181
SXM-11                  
1 69728U 26148A   26183.77673781 -.00000235  00000+0  00000+0 0  9998
2 69728  26.8166 144.0522 6817708 178.2879 186.7543  2.87966624   149
HAIYANG-2E              
1 69737U 26149A   26185.27938487 -.00616275  00000+0 -61195+0 0  9993
2 69737  99.3513 192.3452 0007597 219.2566 140.8036 13.80975314   327
CZ-4B R/B               
1 69738U 26149B   26185.97667965 -.00000053  00000+0  13370-5 0  9999
2 69738  99.3214 193.2655 0198678 359.5115   0.5841 14.30063944   677
2026-152A               
1 69792U 26152A   26185.35318271  .00019217  00000+0  18353-3 0  9993
2 69792  20.5982  50.6670 0023002 199.1853 160.7727 15.63889822   156
2026-152B               
1 69793U 26152B   26185.35315480  .00019114  00000+0  18294-3 0  9993
2 69793  20.5986  50.6800 0023016 201.8951 158.0512 15.63830603   156
